[{"OBJECT_NAME":"CAS500-1","OBJECT_ID":"2021-022A","EPOCH":"2026-03-09T23:57:39.791808","MEAN_MOTION":15.20304346,"ECCENTRICITY":0.00036012,"INCLINATION":97.4003,"RA_OF_ASC_NODE":326.196,"ARG_OF_PERICENTER":278.8383,"MEAN_ANOMALY":81.2444,"EPHEMERIS_TYPE":0,"CLASSIFICATION_TYPE":"U","NORAD_CAT_ID":47932,"ELEMENT_SET_NO":999,"REV_AT_EPOCH":27569,"BSTAR":0.00044667126,"MEAN_MOTION_DOT":9.645e-5,"MEAN_MOTION_DDOT":0},{"OBJECT_NAME":"OBJECT B","OBJECT_ID":"2026-023B","EPOCH":"2026-03-09T17:17:10.012128","MEAN_MOTION":15.23001134,"ECCENTRICITY":0.00195537,"INCLINATION":96.6353,"RA_OF_ASC_NODE":141.6642,"ARG_OF_PERICENTER":132.0881,"MEAN_ANOMALY":228.2024,"EPHEMERIS_TYPE":0,"CLASSIFICATION_TYPE":"U","NORAD_CAT_ID":67675,"ELEMENT_SET_NO":999,"REV_AT_EPOCH":486,"BSTAR":0.00052794729,"MEAN_MOTION_DOT":0.0001243,"MEAN_MOTION_DDOT":0}]
